[{"OBJECT_NAME":"TIANMU-1 08","OBJECT_ID":"2023-101B","EPOCH":"2026-03-07T00:03:25.475616","MEAN_MOTION":15.29204229,"ECCENTRICITY":0.00063808,"INCLINATION":97.2717,"RA_OF_ASC_NODE":118.7901,"ARG_OF_PERICENTER":134.2174,"MEAN_ANOMALY":225.9592,"EPHEMERIS_TYPE":0,"CLASSIFICATION_TYPE":"U","NORAD_CAT_ID":57400,"ELEMENT_SET_NO":999,"REV_AT_EPOCH":14602,"BSTAR":1.4774513e-5,"MEAN_MOTION_DOT":3.46e-6,"MEAN_MOTION_DDOT":0},{"OBJECT_NAME":"STARLINK-33936","OBJECT_ID":"2025-101M","EPOCH":"2026-03-09T03:31:39.035712","MEAN_MOTION":15.27589114,"ECCENTRICITY":0.00014476,"INCLINATION":43.0037,"RA_OF_ASC_NODE":0.908,"ARG_OF_PERICENTER":286.5421,"MEAN_ANOMALY":73.5271,"EPHEMERIS_TYPE":0,"CLASSIFICATION_TYPE":"U","NORAD_CAT_ID":64005,"ELEMENT_SET_NO":999,"REV_AT_EPOCH":4697,"BSTAR":0.0014286357,"MEAN_MOTION_DOT":0.00039271,"MEAN_MOTION_DDOT":0}]
